[{"OBJECT_NAME":"OBJECT H","OBJECT_ID":"2023-091H","EPOCH":"2026-03-09T22:34:46.487712","MEAN_MOTION":15.26380881,"ECCENTRICITY":0.00117854,"INCLINATION":97.5166,"RA_OF_ASC_NODE":131.4381,"ARG_OF_PERICENTER":104.1062,"MEAN_ANOMALY":256.1487,"EPHEMERIS_TYPE":0,"CLASSIFICATION_TYPE":"U","NORAD_CAT_ID":57173,"ELEMENT_SET_NO":999,"REV_AT_EPOCH":14915,"BSTAR":0.00056321781,"MEAN_MOTION_DOT":0.00014617,"MEAN_MOTION_DDOT":0},{"OBJECT_NAME":"STARLINK-30987","OBJECT_ID":"2023-186Q","EPOCH":"2026-03-09T00:44:57.627456","MEAN_MOTION":15.2757594,"ECCENTRICITY":0.00018442,"INCLINATION":43.0024,"RA_OF_ASC_NODE":67.517,"ARG_OF_PERICENTER":288.8768,"MEAN_ANOMALY":71.1883,"EPHEMERIS_TYPE":0,"CLASSIFICATION_TYPE":"U","NORAD_CAT_ID":58487,"ELEMENT_SET_NO":999,"REV_AT_EPOCH":12578,"BSTAR":-3.655461e-6,"MEAN_MOTION_DOT":-3.63e-6,"MEAN_MOTION_DDOT":0}]
